KUIPER-00127            
1 65956U 25228K   26062.32450766  .00004205  00000+0  63051-3 0  9997
2 65956  51.9010  20.0175 0001406 171.8581 188.2403 14.76347939 22414
KUIPER-00128            
1 65957U 25228L   26062.82809215  .00007137  00000+0  96624-3 0  9999
2 65957  51.9026  19.0350 0000817  98.5140 261.5915 14.79843852 22462
KUIPER-00129            
1 65958U 25228M   26062.12465180  .00002221  00000+0  32028-3 0  9999
2 65958  51.9022  17.1328 0001003  84.9197 275.1880 14.79937379 22439
KUIPER-00130            
1 65959U 25228N   26062.08846278  .00005857  00000+0  79583-3 0  9991
2 65959  51.9039  19.8005 0001124  93.3998 266.7093 14.79978214 12687
KUIPER-00134            
1 65960U 25228P   26062.80521411  .00057823  00000+0  15026-2 0  9993
2 65960  51.8767 348.8789 0003564 299.3451  60.7180 15.38381201 22884
KUIPER-00135            
1 65961U 25228Q   26062.25700650 -.00004735  00000+0 -59258-3 0  9999
2 65961  51.9036  19.1148 0000906  79.6421 280.4644 14.79925586 22414
KUIPER-00136            
1 65962U 25228R   26062.09069584  .00006131  00000+0  83429-3 0  9993
2 65962  51.9018  17.3224 0001382  95.3717 264.7404 14.79843077 22426
KUIPER-00137            
1 65963U 25228S   26062.83758280  .00007757  00000+0  96954-3 0  9996
2 65963  51.9033  11.4952 0000747  88.3264 271.7785 14.83105850 22571
KUIPER-00138            
1 65964U 25228T   26062.06246353 -.00001244  00000+0 -13420-3 0  9999
2 65964  51.8998  12.3968 0000873  85.0417 275.0645 14.79937999 22497
KUIPER-00140            
1 65965U 25228U   26062.05977187  .00002771  00000+0  39238-3 0  9994
2 65965  51.9005  14.9919 0001023  82.9053 277.2025 14.79923925 22458
KUIPER-00141            
1 65966U 25228V   26062.80822907  .00054718  00000+0  71480-2 0  9999
2 65966  51.9038   6.6972 0000951  37.4492 322.6536 14.79935208 22632
KUIPER-00146            
1 65967U 25228W   26062.80749111  .00004629  00000+0  68924-3 0  9991
2 65967  51.9044   8.8795 0001166 102.7930 257.3161 14.76455042 22604
KUIPER-00149            
1 65968U 25228X   26062.13543287  .00006582  00000+0  89157-3 0  9995
2 65968  51.9032   7.0836 0001570  63.6344 296.4779 14.79933686 22575
KUIPER-00154            
1 65969U 25228Y   26062.23936073  .00002186  00000+0  31560-3 0  9997
2 65969  51.9020   4.1283 0000556 127.2491 232.8522 14.79945539 22626
KUIPER-00157            
1 65970U 25228Z   26062.23669547  .00006604  00000+0  89408-3 0  9991
2 65970  51.9037   6.7499 0000679  48.2866 311.8154 14.79948403 22584
KUIPER-00144            
1 67133U 25301A   26062.28673799  .00037581  00000+0  99029-3 0  9993
2 67133  51.8683  96.0651 0007958   8.6599 351.4524 15.38123737 12755
KUIPER-00164            
1 67134U 25301B   26062.75002314 -.00939358  00000+0 -47482-1 0  9994
2 67134  51.8783  95.0569 0003756  65.3375  59.2829 15.19287358  5570
